[{"OBJECT_NAME":"STARLINK-3225","OBJECT_ID":"2021-115P","EPOCH":"2026-03-09T12:56:06.863712","MEAN_MOTION":15.0882914,"ECCENTRICITY":0.00016693,"INCLINATION":53.2171,"RA_OF_ASC_NODE":149.7979,"ARG_OF_PERICENTER":90.6292,"MEAN_ANOMALY":269.4892,"EPHEMERIS_TYPE":0,"CLASSIFICATION_TYPE":"U","NORAD_CAT_ID":49737,"ELEMENT_SET_NO":999,"REV_AT_EPOCH":23551,"BSTAR":7.4690208e-5,"MEAN_MOTION_DOT":9.01e-6,"MEAN_MOTION_DDOT":0},{"OBJECT_NAME":"FENGYUN 1C DEB","OBJECT_ID":"1999-025DZE","EPOCH":"2026-02-28T06:22:54.338880","MEAN_MOTION":15.08907087,"ECCENTRICITY":0.00232464,"INCLINATION":99.4552,"RA_OF_ASC_NODE":173.2368,"ARG_OF_PERICENTER":218.3208,"MEAN_ANOMALY":141.6363,"EPHEMERIS_TYPE":0,"CLASSIFICATION_TYPE":"U","NORAD_CAT_ID":36684,"ELEMENT_SET_NO":999,"REV_AT_EPOCH":67065,"BSTAR":0.0055309563,"MEAN_MOTION_DOT":0.00088715,"MEAN_MOTION_DDOT":0}]
